CCSDS_OMM_VERS = 2.0
CREATION_DATE  = 
ORIGINATOR     = 

OBJECT_NAME    = STARLINK-34752
OBJECT_ID      = 2025-240H
CENTER_NAME    = EARTH
REF_FRAME      = TEME
TIME_SYSTEM    = UTC
MEAN_ELEMENT_THEORY = SGP/SGP4

EPOCH          = 2025-11-13T18:00:02.998944
MEAN_MOTION    = 15.49360424
ECCENTRICITY   = .0001584
INCLINATION    = 53.1597
RA_OF_ASC_NODE = 243.4305
ARG_OF_PERICENTER = 84.3327
MEAN_ANOMALY   = 75.6956

EPHEMERIS_TYPE = 0
CLASSIFICATION_TYPE = U
NORAD_CAT_ID   = 66153
ELEMENT_SET_NO = 999
REV_AT_EPOCH   = 424
BSTAR          = -.19681E-2
MEAN_MOTION_DOT = -.108601E-2
MEAN_MOTION_DDOT = 0

CCSDS_OMM_VERS = 2.0
CREATION_DATE  = 
ORIGINATOR     = 

OBJECT_NAME    = STARLINK-34625
OBJECT_ID      = 2025-240J
CENTER_NAME    = EARTH
REF_FRAME      = TEME
TIME_SYSTEM    = UTC
MEAN_ELEMENT_THEORY = SGP/SGP4

EPOCH          = 2025-11-13T18:00:02.998944
MEAN_MOTION    = 15.49359184
ECCENTRICITY   = .0001568
INCLINATION    = 53.1598
RA_OF_ASC_NODE = 243.4254
ARG_OF_PERICENTER = 84.0077
MEAN_ANOMALY   = 77.9337

EPHEMERIS_TYPE = 0
CLASSIFICATION_TYPE = U
NORAD_CAT_ID   = 66154
ELEMENT_SET_NO = 999
REV_AT_EPOCH   = 429
BSTAR          = -.18466E-2
MEAN_MOTION_DOT = -.102005E-2
MEAN_MOTION_DDOT = 0

CCSDS_OMM_VERS = 2.0
CREATION_DATE  = 
ORIGINATOR     = 

OBJECT_NAME    = STARLINK-35580
OBJECT_ID      = 2025-240K
CENTER_NAME    = EARTH
REF_FRAME      = TEME
TIME_SYSTEM    = UTC
MEAN_ELEMENT_THEORY = SGP/SGP4

EPOCH          = 2025-11-13T18:00:02.998944
MEAN_MOTION    = 15.49312021
ECCENTRICITY   = .0000918
INCLINATION    = 53.1598
RA_OF_ASC_NODE = 243.4204
ARG_OF_PERICENTER = 87.3761
MEAN_ANOMALY   = 76.4762

EPHEMERIS_TYPE = 0
CLASSIFICATION_TYPE = U
NORAD_CAT_ID   = 66155
ELEMENT_SET_NO = 999
REV_AT_EPOCH   = 424
BSTAR          = -.19811E-3
MEAN_MOTION_DOT = -.11451E-3
MEAN_MOTION_DDOT = 0

CCSDS_OMM_VERS = 2.0
CREATION_DATE  = 
ORIGINATOR     = 

OBJECT_NAME    = STARLINK-35621
OBJECT_ID      = 2025-240L
CENTER_NAME    = EARTH
REF_FRAME      = TEME
TIME_SYSTEM    = UTC
MEAN_ELEMENT_THEORY = SGP/SGP4

EPOCH          = 2025-11-13T18:00:02.998944
MEAN_MOTION    = 15.49367723
ECCENTRICITY   = .0001601
INCLINATION    = 53.1596
RA_OF_ASC_NODE = 243.4172
ARG_OF_PERICENTER = 90.7220
MEAN_ANOMALY   = 75.0555

EPHEMERIS_TYPE = 0
CLASSIFICATION_TYPE = U
NORAD_CAT_ID   = 66156
ELEMENT_SET_NO = 999
REV_AT_EPOCH   = 424
BSTAR          = -.21998E-2
MEAN_MOTION_DOT = -.121169E-2
MEAN_MOTION_DDOT = 0

CCSDS_OMM_VERS = 2.0
CREATION_DATE  = 
ORIGINATOR     = 

OBJECT_NAME    = STARLINK-35594
OBJECT_ID      = 2025-240M
CENTER_NAME    = EARTH
REF_FRAME      = TEME
TIME_SYSTEM    = UTC
MEAN_ELEMENT_THEORY = SGP/SGP4

EPOCH          = 2025-11-13T18:00:02.998944
MEAN_MOTION    = 15.49256269
ECCENTRICITY   = .0000781
INCLINATION    = 53.1598
RA_OF_ASC_NODE = 243.4129
ARG_OF_PERICENTER = 89.9680
MEAN_ANOMALY   = 77.7188

EPHEMERIS_TYPE = 0
CLASSIFICATION_TYPE = U
NORAD_CAT_ID   = 66157
ELEMENT_SET_NO = 999
REV_AT_EPOCH   = 424
BSTAR          = .12053E-2
MEAN_MOTION_DOT = .67037E-3
MEAN_MOTION_DDOT = 0

CCSDS_OMM_VERS = 2.0
CREATION_DATE  = 
ORIGINATOR     = 

OBJECT_NAME    = STARLINK-35587
OBJECT_ID      = 2025-240N
CENTER_NAME    = EARTH
REF_FRAME      = TEME
TIME_SYSTEM    = UTC
MEAN_ELEMENT_THEORY = SGP/SGP4

EPOCH          = 2025-11-13T18:00:02.998944
MEAN_MOTION    = 15.49295191
ECCENTRICITY   = .0000833
INCLINATION    = 53.1596
RA_OF_ASC_NODE = 243.4084
ARG_OF_PERICENTER = 77.3287
MEAN_ANOMALY   = 92.2703

EPHEMERIS_TYPE = 0
CLASSIFICATION_TYPE = U
NORAD_CAT_ID   = 66158
ELEMENT_SET_NO = 999
REV_AT_EPOCH   = 424
BSTAR          = .18106E-3
MEAN_MOTION_DOT = .9629E-4
MEAN_MOTION_DDOT = 0

CCSDS_OMM_VERS = 2.0
CREATION_DATE  = 
ORIGINATOR     = 

OBJECT_NAME    = STARLINK-35586
OBJECT_ID      = 2025-240P
CENTER_NAME    = EARTH
REF_FRAME      = TEME
TIME_SYSTEM    = UTC
MEAN_ELEMENT_THEORY = SGP/SGP4

EPOCH          = 2025-11-13T18:00:02.998944
MEAN_MOTION    = 15.49367117
ECCENTRICITY   = .0001574
INCLINATION    = 53.1596
RA_OF_ASC_NODE = 243.4049
ARG_OF_PERICENTER = 88.6311
MEAN_ANOMALY   = 82.8970

EPHEMERIS_TYPE = 0
CLASSIFICATION_TYPE = U
NORAD_CAT_ID   = 66159
ELEMENT_SET_NO = 999
REV_AT_EPOCH   = 424
BSTAR          = -.21795E-2
MEAN_MOTION_DOT = -.120068E-2
MEAN_MOTION_DDOT = 0

CCSDS_OMM_VERS = 2.0
CREATION_DATE  = 
ORIGINATOR     = 

OBJECT_NAME    = STARLINK-35636
OBJECT_ID      = 2025-240Q
CENTER_NAME    = EARTH
REF_FRAME      = TEME
TIME_SYSTEM    = UTC
MEAN_ELEMENT_THEORY = SGP/SGP4

EPOCH          = 2025-11-13T18:00:02.998944
MEAN_MOTION    = 15.49356726
ECCENTRICITY   = .0001497
INCLINATION    = 53.1596
RA_OF_ASC_NODE = 243.3961
ARG_OF_PERICENTER = 89.0359
MEAN_ANOMALY   = 86.3230

EPHEMERIS_TYPE = 0
CLASSIFICATION_TYPE = U
NORAD_CAT_ID   = 66160
ELEMENT_SET_NO = 999
REV_AT_EPOCH   = 424
BSTAR          = -.17499E-2
MEAN_MOTION_DOT = -.96738E-3
MEAN_MOTION_DDOT = 0

CCSDS_OMM_VERS = 2.0
CREATION_DATE  = 
ORIGINATOR     = 

OBJECT_NAME    = STARLINK-35635
OBJECT_ID      = 2025-240R
CENTER_NAME    = EARTH
REF_FRAME      = TEME
TIME_SYSTEM    = UTC
MEAN_ELEMENT_THEORY = SGP/SGP4

EPOCH          = 2025-11-13T18:00:02.998944
MEAN_MOTION    = 15.49263246
ECCENTRICITY   = .0000886
INCLINATION    = 53.1596
RA_OF_ASC_NODE = 243.4001
ARG_OF_PERICENTER = 78.0182
MEAN_ANOMALY   = 95.4214

EPHEMERIS_TYPE = 0
CLASSIFICATION_TYPE = U
NORAD_CAT_ID   = 66161
ELEMENT_SET_NO = 999
REV_AT_EPOCH   = 424
BSTAR          = .1066E-2
MEAN_MOTION_DOT = .59194E-3
MEAN_MOTION_DDOT = 0

CCSDS_OMM_VERS = 2.0
CREATION_DATE  = 
ORIGINATOR     = 

OBJECT_NAME    = STARLINK-35633
OBJECT_ID      = 2025-240S
CENTER_NAME    = EARTH
REF_FRAME      = TEME
TIME_SYSTEM    = UTC
MEAN_ELEMENT_THEORY = SGP/SGP4

EPOCH          = 2025-11-13T18:00:02.998944
MEAN_MOTION    = 15.59262536
ECCENTRICITY   = .0001016
INCLINATION    = 53.1588
RA_OF_ASC_NODE = 243.1275
ARG_OF_PERICENTER = 129.0409
MEAN_ANOMALY   = 179.7699

EPHEMERIS_TYPE = 0
CLASSIFICATION_TYPE = U
NORAD_CAT_ID   = 66162
ELEMENT_SET_NO = 999
REV_AT_EPOCH   = 424
BSTAR          = -.28563E-1
MEAN_MOTION_DOT = -.2005703E-1
MEAN_MOTION_DDOT = 0

CCSDS_OMM_VERS = 2.0
CREATION_DATE  = 
ORIGINATOR     = 

OBJECT_NAME    = STARLINK-35607
OBJECT_ID      = 2025-240T
CENTER_NAME    = EARTH
REF_FRAME      = TEME
TIME_SYSTEM    = UTC
MEAN_ELEMENT_THEORY = SGP/SGP4

EPOCH          = 2025-11-13T18:00:02.998944
MEAN_MOTION    = 15.59264815
ECCENTRICITY   = .0001032
INCLINATION    = 53.1589
RA_OF_ASC_NODE = 243.1239
ARG_OF_PERICENTER = 119.8564
MEAN_ANOMALY   = 190.8711

EPHEMERIS_TYPE = 0
CLASSIFICATION_TYPE = U
NORAD_CAT_ID   = 66163
ELEMENT_SET_NO = 999
REV_AT_EPOCH   = 424
BSTAR          = -.28611E-1
MEAN_MOTION_DOT = -.2008809E-1
MEAN_MOTION_DDOT = 0

CCSDS_OMM_VERS = 2.0
CREATION_DATE  = 
ORIGINATOR     = 

OBJECT_NAME    = STARLINK-35614
OBJECT_ID      = 2025-240U
CENTER_NAME    = EARTH
REF_FRAME      = TEME
TIME_SYSTEM    = UTC
MEAN_ELEMENT_THEORY = SGP/SGP4

EPOCH          = 2025-11-13T18:00:02.998944
MEAN_MOTION    = 15.59262000
ECCENTRICITY   = .0001156
INCLINATION    = 53.1590
RA_OF_ASC_NODE = 243.1152
ARG_OF_PERICENTER = 116.2077
MEAN_ANOMALY   = 198.3539

EPHEMERIS_TYPE = 0
CLASSIFICATION_TYPE = U
NORAD_CAT_ID   = 66164
ELEMENT_SET_NO = 999
REV_AT_EPOCH   = 424
BSTAR          = -.28535E-1
MEAN_MOTION_DOT = -.2004019E-1
MEAN_MOTION_DDOT = 0

