STARLINK-34752          
1 66153U 25240H   25317.75003471 -.00108601  00000+0 -19681-2 0  9993
2 66153  53.1597 243.4305 0001584  84.3327  75.6956 15.49360424  4245
STARLINK-34625          
1 66154U 25240J   25317.75003471 -.00102005  00000+0 -18466-2 0  9996
2 66154  53.1598 243.4254 0001568  84.0077  77.9337 15.49359184  4295
STARLINK-35580          
1 66155U 25240K   25317.75003471 -.00011451  00000+0 -19811-3 0  9997
2 66155  53.1598 243.4204 0000918  87.3761  76.4762 15.49312021  4245
STARLINK-35621          
1 66156U 25240L   25317.75003471 -.00121169  00000+0 -21998-2 0  9994
2 66156  53.1596 243.4172 0001601  90.7220  75.0555 15.49367723  4240
STARLINK-35594          
1 66157U 25240M   25317.75003471  .00067037  00000+0  12053-2 0  9998
2 66157  53.1598 243.4129 0000781  89.9680  77.7188 15.49256269  4246
STARLINK-35587          
1 66158U 25240N   25317.75003471  .00009629  00000+0  18106-3 0  9998
2 66158  53.1596 243.4084 0000833  77.3287  92.2703 15.49295191  4249
STARLINK-35586          
1 66159U 25240P   25317.75003471 -.00120068  00000+0 -21795-2 0  9999
2 66159  53.1596 243.4049 0001574  88.6311  82.8970 15.49367117  4246
STARLINK-35636          
1 66160U 25240Q   25317.75003471 -.00096738  00000+0 -17499-2 0  9993
2 66160  53.1596 243.3961 0001497  89.0359  86.3230 15.49356726  4243
STARLINK-35635          
1 66161U 25240R   25317.75003471  .00059194  00000+0  10660-2 0  9990
2 66161  53.1596 243.4001 0000886  78.0182  95.4214 15.49263246  4240
STARLINK-35633          
1 66162U 25240S   25317.75003471 -.02005703  00000+0 -28563-1 0  9992
2 66162  53.1588 243.1275 0001016 129.0409 179.7699 15.59262536  4242
STARLINK-35607          
1 66163U 25240T   25317.75003471 -.02008809  00000+0 -28611-1 0  9997
2 66163  53.1589 243.1239 0001032 119.8564 190.8711 15.59264815  4242
STARLINK-35614          
1 66164U 25240U   25317.75003471 -.02004019  00000+0 -28535-1 0  9992
2 66164  53.1590 243.1152 0001156 116.2077 198.3539 15.59262000  4241
